[{"OBJECT_NAME":"GRBBETA","OBJECT_ID":"2024-128C","EPOCH":"2026-03-09T16:58:19.607232","MEAN_MOTION":15.05794613,"ECCENTRICITY":0.0051339,"INCLINATION":61.9904,"RA_OF_ASC_NODE":205.0764,"ARG_OF_PERICENTER":114.1677,"MEAN_ANOMALY":246.4795,"EPHEMERIS_TYPE":0,"CLASSIFICATION_TYPE":"U","NORAD_CAT_ID":60237,"ELEMENT_SET_NO":999,"REV_AT_EPOCH":9128,"BSTAR":0.00046403869,"MEAN_MOTION_DOT":6.748e-5,"MEAN_MOTION_DDOT":0},{"OBJECT_NAME":"SITRO-AIS-59","OBJECT_ID":"2025-313K","EPOCH":"2026-03-09T21:18:35.055936","MEAN_MOTION":15.21259923,"ECCENTRICITY":0.00156259,"INCLINATION":97.4001,"RA_OF_ASC_NODE":145.102,"ARG_OF_PERICENTER":358.3568,"MEAN_ANOMALY":1.7614,"EPHEMERIS_TYPE":0,"CLASSIFICATION_TYPE":"U","NORAD_CAT_ID":67257,"ELEMENT_SET_NO":999,"REV_AT_EPOCH":1084,"BSTAR":0.00052056429,"MEAN_MOTION_DOT":0.00011608,"MEAN_MOTION_DDOT":0}]
